<?xml version="1.0" encoding="UTF-8"?>
<response xmlns:xsd="http://www.w3.org/2001/XMLSchema" xmlns:xsi="http://www.w3.org/2001/XML-Schema-instance" version="1.2" xsi:noNamespaceSchemaLocation="http://aviationweather.gov/adds/schema/metar1_2.xsd">
  <request_index>26337199</request_index>
  <data_source name="metars" />
  <request type="retrieve" />
  <errors />
  <warnings />
  <time_taken_ms>621</time_taken_ms>
  <data num_results="1">
    <METAR>
      <raw_text>KSTK 110140Z AUTO 08004KT 10SM CLR 03/M05 A3002 RMK AO2</raw_text>
      <station_id>KSTK</station_id>
      <observation_time>2018-11-11T01:40:00Z</observation_time>
      <latitude>40.62</latitude>
      <longitude>-103.27</longitude>
      <temp_c>3.0</temp_c>
      <dewpoint_c>-5.0</dewpoint_c>
      <wind_dir_degrees>80</wind_dir_degrees>
      <wind_speed_kt>4</wind_speed_kt>
      <visibility_statute_mi>10.0</visibility_statute_mi>
      <altim_in_hg>30.02067</altim_in_hg>
      <quality_control_flags>
        <auto>TRUE</auto>
        <auto_station>TRUE</auto_station>
      </quality_control_flags>
      <sky_condition sky_cover="CLR" />
      <flight_category>VFR</flight_category>
      <metar_type>METAR</metar_type>
      <elevation_m>1231.0</elevation_m>
    </METAR>
  </data>
</response>

